{"fetched_at":"2026-07-13T07:48:18.626Z","source":"https://celestrak.org/NORAD/elements/gp.php?NAME=GLOBAL&FORMAT=JSON","constellation":"blacksky-gen2","records":[{"OBJECT_NAME":"GLOBAL-2","OBJECT_ID":"2018-099BG","EPOCH":"2026-07-12T13:01:18.854112","CLASSIFICATION_TYPE":"U","MEAN_MOTION":15.08816851,"ECCENTRICITY":0.00075507,"INCLINATION":97.3547,"RA_OF_ASC_NODE":229.0016,"ARG_OF_PERICENTER":74.5757,"MEAN_ANOMALY":285.6306,"EPHEMERIS_TYPE":0,"NORAD_CAT_ID":43812,"ELEMENT_SET_NO":999,"REV_AT_EPOCH":41573,"BSTAR":0.000083393152,"MEAN_MOTION_DOT":0.00001252,"MEAN_MOTION_DDOT":0},{"OBJECT_NAME":"GLOBAL-4","OBJECT_ID":"2019-054E","EPOCH":"2026-07-12T20:30:30.784608","CLASSIFICATION_TYPE":"U","MEAN_MOTION":15.66900563,"ECCENTRICITY":0.0004967,"INCLINATION":45.0059,"RA_OF_ASC_NODE":88.0251,"ARG_OF_PERICENTER":180.7607,"MEAN_ANOMALY":179.3284,"EPHEMERIS_TYPE":0,"NORAD_CAT_ID":44499,"ELEMENT_SET_NO":999,"REV_AT_EPOCH":38438,"BSTAR":0.00042086,"MEAN_MOTION_DOT":0.00045604,"MEAN_MOTION_DDOT":0},{"OBJECT_NAME":"GLOBAL-9","OBJECT_ID":"2021-023G","EPOCH":"2026-07-11T22:03:30.729888","CLASSIFICATION_TYPE":"U","MEAN_MOTION":15.47521708,"ECCENTRICITY":0.0003107,"INCLINATION":44.9831,"RA_OF_ASC_NODE":111.4178,"ARG_OF_PERICENTER":140.8754,"MEAN_ANOMALY":219.2362,"EPHEMERIS_TYPE":0,"NORAD_CAT_ID":47971,"ELEMENT_SET_NO":999,"REV_AT_EPOCH":29877,"BSTAR":0.00027585,"MEAN_MOTION_DOT":0.00014163,"MEAN_MOTION_DDOT":0},{"OBJECT_NAME":"GLOBAL-14","OBJECT_ID":"2021-106A","EPOCH":"2026-07-12T04:43:11.189856","CLASSIFICATION_TYPE":"U","MEAN_MOTION":15.51722687,"ECCENTRICITY":0.00172901,"INCLINATION":42.0026,"RA_OF_ASC_NODE":142.3164,"ARG_OF_PERICENTER":204.0869,"MEAN_ANOMALY":155.9168,"EPHEMERIS_TYPE":0,"NORAD_CAT_ID":49469,"ELEMENT_SET_NO":999,"REV_AT_EPOCH":26201,"BSTAR":0.00026617253,"MEAN_MOTION_DOT":0.00016087,"MEAN_MOTION_DDOT":0},{"OBJECT_NAME":"GLOBAL-12","OBJECT_ID":"2021-115BA","EPOCH":"2026-07-12T20:33:20.156256","CLASSIFICATION_TYPE":"U","MEAN_MOTION":15.55237714,"ECCENTRICITY":0.0002752,"INCLINATION":53.1952,"RA_OF_ASC_NODE":280.9648,"ARG_OF_PERICENTER":70.6953,"MEAN_ANOMALY":289.4357,"EPHEMERIS_TYPE":0,"NORAD_CAT_ID":49772,"ELEMENT_SET_NO":999,"REV_AT_EPOCH":25989,"BSTAR":0.00040346,"MEAN_MOTION_DOT":0.0002739,"MEAN_MOTION_DDOT":0},{"OBJECT_NAME":"GLOBAL-13","OBJECT_ID":"2021-115BB","EPOCH":"2026-07-12T20:09:31.700736","CLASSIFICATION_TYPE":"U","MEAN_MOTION":15.47050526,"ECCENTRICITY":0.0000881,"INCLINATION":53.198,"RA_OF_ASC_NODE":292.5494,"ARG_OF_PERICENTER":154.6291,"MEAN_ANOMALY":205.4761,"EPHEMERIS_TYPE":0,"NORAD_CAT_ID":49773,"ELEMENT_SET_NO":999,"REV_AT_EPOCH":25973,"BSTAR":0.00028626,"MEAN_MOTION_DOT":0.00014304,"MEAN_MOTION_DDOT":0},{"OBJECT_NAME":"GLOBAL-17","OBJECT_ID":"2021-120A","EPOCH":"2026-07-12T14:54:06.617088","CLASSIFICATION_TYPE":"U","MEAN_MOTION":15.53627452,"ECCENTRICITY":0.0013406,"INCLINATION":41.9942,"RA_OF_ASC_NODE":257.586,"ARG_OF_PERICENTER":70.7431,"MEAN_ANOMALY":289.4863,"EPHEMERIS_TYPE":0,"NORAD_CAT_ID":49949,"ELEMENT_SET_NO":999,"REV_AT_EPOCH":25885,"BSTAR":0.00028977,"MEAN_MOTION_DOT":0.00018771,"MEAN_MOTION_DDOT":0},{"OBJECT_NAME":"GLOBAL-16","OBJECT_ID":"2021-120B","EPOCH":"2026-07-12T12:58:53.501664","CLASSIFICATION_TYPE":"U","MEAN_MOTION":15.51399124,"ECCENTRICITY":0.00115644,"INCLINATION":41.9943,"RA_OF_ASC_NODE":262.2834,"ARG_OF_PERICENTER":59.6715,"MEAN_ANOMALY":300.5272,"EPHEMERIS_TYPE":0,"NORAD_CAT_ID":49950,"ELEMENT_SET_NO":999,"REV_AT_EPOCH":25878,"BSTAR":0.00027623827,"MEAN_MOTION_DOT":0.00016457,"MEAN_MOTION_DDOT":0},{"OBJECT_NAME":"GLOBAL-18","OBJECT_ID":"2022-034B","EPOCH":"2026-07-12T06:16:14.616192","CLASSIFICATION_TYPE":"U","MEAN_MOTION":15.47134177,"ECCENTRICITY":0.0004322,"INCLINATION":52.98,"RA_OF_ASC_NODE":136.7234,"ARG_OF_PERICENTER":16.8415,"MEAN_ANOMALY":343.2733,"EPHEMERIS_TYPE":0,"NORAD_CAT_ID":52196,"ELEMENT_SET_NO":999,"REV_AT_EPOCH":24084,"BSTAR":0.00026841,"MEAN_MOTION_DOT":0.00013426,"MEAN_MOTION_DDOT":0},{"OBJECT_NAME":"GLOBAL-19","OBJECT_ID":"2023-041B","EPOCH":"2026-07-12T19:24:41.774112","CLASSIFICATION_TYPE":"U","MEAN_MOTION":15.3864173,"ECCENTRICITY":0.0009312,"INCLINATION":42.0023,"RA_OF_ASC_NODE":52.406,"ARG_OF_PERICENTER":202.9328,"MEAN_ANOMALY":157.1096,"EPHEMERIS_TYPE":0,"NORAD_CAT_ID":55982,"ELEMENT_SET_NO":999,"REV_AT_EPOCH":18587,"BSTAR":0.00024665,"MEAN_MOTION_DOT":0.00009383,"MEAN_MOTION_DDOT":0},{"OBJECT_NAME":"GLOBAL-5","OBJECT_ID":"2023-041C","EPOCH":"2026-07-12T15:31:21.639936","CLASSIFICATION_TYPE":"U","MEAN_MOTION":15.3865134,"ECCENTRICITY":0.0008112,"INCLINATION":42.0016,"RA_OF_ASC_NODE":52.8783,"ARG_OF_PERICENTER":197.4944,"MEAN_ANOMALY":162.5617,"EPHEMERIS_TYPE":0,"NORAD_CAT_ID":55983,"ELEMENT_SET_NO":999,"REV_AT_EPOCH":18585,"BSTAR":0.00022652,"MEAN_MOTION_DOT":0.00008594,"MEAN_MOTION_DDOT":0}]}
