GLOBAL-2                
1 43812U 18099BG  26193.54257933  .00001252  00000+0  83393-4 0  9993
2 43812  97.3547 229.0016 0007550  74.5757 285.6306 15.08816851415730
GLOBAL-4                
1 44499U 19054E   26193.85452297  .00045604  00000+0  42086-3 0  9993
2 44499  45.0059  88.0251 0004967 180.7607 179.3284 15.66900563384385
GLOBAL-9                
1 47971U 21023G   26192.91910567  .00014163  00000+0  27585-3 0  9998
2 47971  44.9831 111.4178 0003107 140.8754 219.2362 15.47521708298770
GLOBAL-14               
1 49469U 21106A   26193.19665729  .00016087  00000+0  26617-3 0  9994
2 49469  42.0026 142.3164 0017290 204.0869 155.9168 15.51722687262017
GLOBAL-12               
1 49772U 21115BA  26193.85648329  .00027390  00000+0  40346-3 0  9995
2 49772  53.1952 280.9648 0002752  70.6953 289.4357 15.55237714259890
GLOBAL-13               
1 49773U 21115BB  26193.83995024  .00014304  00000+0  28626-3 0  9999
2 49773  53.1980 292.5494 0000881 154.6291 205.4761 15.47050526259734
GLOBAL-17               
1 49949U 21120A   26193.62090992  .00018771  00000+0  28977-3 0  9998
2 49949  41.9942 257.5860 0013406  70.7431 289.4863 15.53627452258853
GLOBAL-16               
1 49950U 21120B   26193.54089701  .00016457  00000+0  27624-3 0  9994
2 49950  41.9943 262.2834 0011564  59.6715 300.5272 15.51399124258785
GLOBAL-18               
1 52196U 22034B   26193.26128028  .00013426  00000+0  26841-3 0  9993
2 52196  52.9800 136.7234 0004322  16.8415 343.2733 15.47134177240844
GLOBAL-19               
1 55982U 23041B   26193.80881683  .00009383  00000+0  24665-3 0  9990
2 55982  42.0023  52.4060 0009312 202.9328 157.1096 15.38641730185876
GLOBAL-5                
1 55983U 23041C   26193.64677824  .00008594  00000+0  22652-3 0  9990
2 55983  42.0016  52.8783 0008112 197.4944 162.5617 15.38651340185859
